{
  "type": "FeatureCollection",
  "features": [
    {
      "type": "Feature",
      "properties": {
        "norad_id": 35065,
        "name": "COSMOS 2251 DEB",
        "group": "cosmos-2251-debris",
        "lat": -50.12998968679943,
        "lon": 43.9789208359818,
        "alt_km": 747.8690170880454,
        "timestamp": "2025-12-07T14:37:05.599514+00:00",
        "meta_object_name": "COSMOS 2251 DEB",
        "meta_object_id": "1993-036AHU",
        "meta_epoch": "2025-12-06T22:35:45.269952",
        "meta_mean_motion": 14.4570153,
        "meta_eccentricity": 0.00196371,
        "meta_inclination": 74.0198,
        "meta_ra_of_asc_node": 205.1597,
        "meta_arg_of_pericenter": 331.0404,
        "meta_mean_anomaly": 28.9662,
        "meta_ephemeris_type": 0,
        "meta_classification_type": "U",
        "meta_norad_cat_id": 35065,
        "meta_element_set_no": 999,
        "meta_rev_at_epoch": 68267,
        "meta_bstar": 0.00070588352,
        "meta_mean_motion_dot": 2.479e-05,
        "meta_mean_motion_ddot": 0,
        "tle_line1": "1 35065U 93036AHU 25340.94149618  .00002479  00000+0  70588-3 0  9998",
        "tle_line2": "2 35065  74.0198 205.1597 0019637 331.0404  28.9662 14.45701530682672"
      },
      "geometry": {
        "type": "Point",
        "coordinates": [
          43.9789208359818,
          -50.12998968679943
        ]
      }
    },
    {
      "type": "Feature",
      "properties": {
        "norad_id": 35071,
        "name": "COSMOS 2251 DEB",
        "group": "cosmos-2251-debris",
        "lat": 65.31091642204905,
        "lon": -34.84202448695812,
        "alt_km": 507.5990659457011,
        "timestamp": "2025-12-07T14:37:05.599524+00:00",
        "meta_object_name": "COSMOS 2251 DEB",
        "meta_object_id": "1993-036AJA",
        "meta_epoch": "2025-12-06T06:11:48.969024",
        "meta_mean_motion": 15.03269957,
        "meta_eccentricity": 0.00683754,
        "meta_inclination": 73.9314,
        "meta_ra_of_asc_node": 186.7627,
        "meta_arg_of_pericenter": 85.1943,
        "meta_mean_anomaly": 275.7048,
        "meta_ephemeris_type": 0,
        "meta_classification_type": "U",
        "meta_norad_cat_id": 35071,
        "meta_element_set_no": 999,
        "meta_rev_at_epoch": 67439,
        "meta_bstar": 0.0011992827,
        "meta_mean_motion_dot": 0.00017109,
        "meta_mean_motion_ddot": 0,
        "tle_line1": "1 35071U 93036AJA 25340.25820566  .00017109  00000+0  11993-2 0  9997",
        "tle_line2": "2 35071  73.9314 186.7627 0068375  85.1943 275.7048 15.03269957674390"
      },
      "geometry": {
        "type": "Point",
        "coordinates": [
          -34.84202448695812,
          65.31091642204905
        ]
      }
    },
    {
      "type": "Feature",
      "properties": {
        "norad_id": 35073,
        "name": "COSMOS 2251 DEB",
        "group": "cosmos-2251-debris",
        "lat": -73.90698227281688,
        "lon": -102.96967161766246,
        "alt_km": 580.4680692020193,
        "timestamp": "2025-12-07T14:37:05.599534+00:00",
        "meta_object_name": "COSMOS 2251 DEB",
        "meta_object_id": "1993-036AJC",
        "meta_epoch": "2025-12-06T06:59:58.933248",
        "meta_mean_motion": 14.99991639,
        "meta_eccentricity": 0.00102924,
        "meta_inclination": 74.0009,
        "meta_ra_of_asc_node": 343.7168,
        "meta_arg_of_pericenter": 84.8418,
        "meta_mean_anomaly": 275.3943,
        "meta_ephemeris_type": 0,
        "meta_classification_type": "U",
        "meta_norad_cat_id": 35073,
        "meta_element_set_no": 999,
        "meta_rev_at_epoch": 67382,
        "meta_bstar": 0.0044204403,
        "meta_mean_motion_dot": 0.00055435,
        "meta_mean_motion_ddot": 0,
        "tle_line1": "1 35073U 93036AJC 25340.29165432  .00055435  00000+0  44204-2 0  9992",
        "tle_line2": "2 35073  74.0009 343.7168 0010292  84.8418 275.3943 14.99991639673828"
      },
      "geometry": {
        "type": "Point",
        "coordinates": [
          -102.96967161766246,
          -73.90698227281688
        ]
      }
    },
    {
      "type": "Feature",
      "properties": {
        "norad_id": 35284,
        "name": "COSMOS 2251 DEB",
        "group": "cosmos-2251-debris",
        "lat": 59.87530492669782,
        "lon": -56.59851302821868,
        "alt_km": 754.424179044955,
        "timestamp": "2025-12-07T14:37:05.599544+00:00",
        "meta_object_name": "COSMOS 2251 DEB",
        "meta_object_id": "1993-036AJN",
        "meta_epoch": "2025-12-06T14:07:12.355680",
        "meta_mean_motion": 14.38306996,
        "meta_eccentricity": 0.00165553,
        "meta_inclination": 74.0489,
        "meta_ra_of_asc_node": 275.7489,
        "meta_arg_of_pericenter": 353.4486,
        "meta_mean_anomaly": 187.2786,
        "meta_ephemeris_type": 0,
        "meta_classification_type": "U",
        "meta_norad_cat_id": 35284,
        "meta_element_set_no": 999,
        "meta_rev_at_epoch": 65437,
        "meta_bstar": 0.00034127282,
        "meta_mean_motion_dot": 1.014e-05,
        "meta_mean_motion_ddot": 0,
        "tle_line1": "1 35284U 93036AJN 25340.58833745  .00001014  00000+0  34127-3 0  9995",
        "tle_line2": "2 35284  74.0489 275.7489 0016555 353.4486 187.2786 14.38306996654376"
      },
      "geometry": {
        "type": "Point",
        "coordinates": [
          -56.59851302821868,
          59.87530492669782
        ]
      }
    },
    {
      "type": "Feature",
      "properties": {
        "norad_id": 35287,
        "name": "COSMOS 2251 DEB",
        "group": "cosmos-2251-debris",
        "lat": -73.20963092301103,
        "lon": -146.0671965323887,
        "alt_km": 781.3838239341339,
        "timestamp": "2025-12-07T14:37:05.599554+00:00",
        "meta_object_name": "COSMOS 2251 DEB",
        "meta_object_id": "1993-036AJR",
        "meta_epoch": "2025-12-06T20:46:38.621856",
        "meta_mean_motion": 14.36368234,
        "meta_eccentricity": 0.00173089,
        "meta_inclination": 74.0302,
        "meta_ra_of_asc_node": 286.9293,
        "meta_arg_of_pericenter": 25.2797,
        "meta_mean_anomaly": 7.7875,
        "meta_ephemeris_type": 0,
        "meta_classification_type": "U",
        "meta_norad_cat_id": 35287,
        "meta_element_set_no": 999,
        "meta_rev_at_epoch": 86808,
        "meta_bstar": 0.00028016329,
        "meta_mean_motion_dot": 7.95e-06,
        "meta_mean_motion_ddot": 0,
        "tle_line1": "1 35287U 93036AJR 25340.86572479  .00000795  00000+0  28016-3 0  9998",
        "tle_line2": "2 35287  74.0302 286.9293 0017308  25.2797   7.7875 14.36368234868087"
      },
      "geometry": {
        "type": "Point",
        "coordinates": [
          -146.0671965323887,
          -73.20963092301103
        ]
      }
    },
    {
      "type": "Feature",
      "properties": {
        "norad_id": 35288,
        "name": "COSMOS 2251 DEB",
        "group": "cosmos-2251-debris",
        "lat": -64.52547569855577,
        "lon": -117.72441151334627,
        "alt_km": 655.1216566848434,
        "timestamp": "2025-12-07T14:37:05.599564+00:00",
        "meta_object_name": "COSMOS 2251 DEB",
        "meta_object_id": "1993-036AJS",
        "meta_epoch": "2025-12-05T20:30:59.855616",
        "meta_mean_motion": 14.65344236,
        "meta_eccentricity": 0.00396154,
        "meta_inclination": 73.9509,
        "meta_ra_of_asc_node": 28.4958,
        "meta_arg_of_pericenter": 262.8912,
        "meta_mean_anomaly": 96.775,
        "meta_ephemeris_type": 0,
        "meta_classification_type": "U",
        "meta_norad_cat_id": 35288,
        "meta_element_set_no": 999,
        "meta_rev_at_epoch": 87777,
        "meta_bstar": 0.0019659658,
        "meta_mean_motion_dot": 0.00010724,
        "meta_mean_motion_ddot": 0,
        "tle_line1": "1 35288U 93036AJS 25339.85485944  .00010724  00000+0  19660-2 0  9993",
        "tle_line2": "2 35288  73.9509  28.4958 0039615 262.8912  96.7750 14.65344236877779"
      },
      "geometry": {
        "type": "Point",
        "coordinates": [
          -117.72441151334627,
          -64.52547569855577
        ]
      }
    },
    {
      "type": "Feature",
      "properties": {
        "norad_id": 35290,
        "name": "COSMOS 2251 DEB",
        "group": "cosmos-2251-debris",
        "lat": -68.31182679250735,
        "lon": -64.2823874609814,
        "alt_km": 634.491625978676,
        "timestamp": "2025-12-07T14:37:05.599574+00:00",
        "meta_object_name": "COSMOS 2251 DEB",
        "meta_object_id": "1993-036AJU",
        "meta_epoch": "2025-12-06T16:22:51.987360",
        "meta_mean_motion": 14.8010207,
        "meta_eccentricity": 0.00029414,
        "meta_inclination": 74.0059,
        "meta_ra_of_asc_node": 71.3921,
        "meta_arg_of_pericenter": 204.4724,
        "meta_mean_anomaly": 155.6313,
        "meta_ephemeris_type": 0,
        "meta_classification_type": "U",
        "meta_norad_cat_id": 35290,
        "meta_element_set_no": 999,
        "meta_rev_at_epoch": 87868,
        "meta_bstar": 0.0036735181,
        "meta_mean_motion_dot": 0.00027947,
        "meta_mean_motion_ddot": 0,
        "tle_line1": "1 35290U 93036AJU 25340.68254615  .00027947  00000+0  36735-2 0  9995",
        "tle_line2": "2 35290  74.0059  71.3921 0002941 204.4724 155.6313 14.80102070878682"
      },
      "geometry": {
        "type": "Point",
        "coordinates": [
          -64.2823874609814,
          -68.31182679250735
        ]
      }
    }
  ]
}